{
  "type": "FeatureCollection",
  "features": [
    {
      "type": "Feature",
      "properties": {
        "norad_id": 51444,
        "name": "CSG-2",
        "group": "resource",
        "lat": -29.55017130895373,
        "lon": 168.05603667741408,
        "alt_km": 628.9215557067046,
        "timestamp": "2025-12-08T03:50:06.662741+00:00",
        "meta_object_name": "CSG-2",
        "meta_object_id": "2022-008A",
        "meta_epoch": "2025-12-07T06:54:22.896000",
        "meta_mean_motion": 14.82155172,
        "meta_eccentricity": 0.00014908,
        "meta_inclination": 97.8813,
        "meta_ra_of_asc_node": 162.6932,
        "meta_arg_of_pericenter": 88.3618,
        "meta_mean_anomaly": 271.7766,
        "meta_ephemeris_type": 0,
        "meta_classification_type": "U",
        "meta_norad_cat_id": 51444,
        "meta_element_set_no": 999,
        "meta_rev_at_epoch": 20816,
        "meta_bstar": 0.00011881479,
        "meta_mean_motion_dot": 8.94e-06,
        "meta_mean_motion_ddot": 0,
        "tle_line1": "1 51444U 22008A   25341.28776500  .00000894  00000+0  11881-3 0  9992",
        "tle_line2": "2 51444  97.8813 162.6932 0001490  88.3618 271.7766 14.82155172208162"
      },
      "geometry": {
        "type": "Point",
        "coordinates": [
          168.05603667741408,
          -29.55017130895373
        ]
      }
    },
    {
      "type": "Feature",
      "properties": {
        "norad_id": 52912,
        "name": "GAOFEN-12 03",
        "group": "resource",
        "lat": -69.59334390794317,
        "lon": -108.62162047021371,
        "alt_km": 639.1191248330015,
        "timestamp": "2025-12-08T03:50:06.662753+00:00",
        "meta_object_name": "GAOFEN-12 03",
        "meta_object_id": "2022-069A",
        "meta_epoch": "2025-12-07T05:25:59.992320",
        "meta_mean_motion": 14.79589489,
        "meta_eccentricity": 0.0002297,
        "meta_inclination": 97.8488,
        "meta_ra_of_asc_node": 228.7026,
        "meta_arg_of_pericenter": 71.7844,
        "meta_mean_anomaly": 288.3618,
        "meta_ephemeris_type": 0,
        "meta_classification_type": "U",
        "meta_norad_cat_id": 52912,
        "meta_element_set_no": 999,
        "meta_rev_at_epoch": 18622,
        "meta_bstar": 0.00030215231,
        "meta_mean_motion_dot": 2.213e-05,
        "meta_mean_motion_ddot": 0,
        "tle_line1": "1 52912U 22069A   25341.22638880  .00002213  00000+0  30215-3 0  9991",
        "tle_line2": "2 52912  97.8488 228.7026 0002297  71.7844 288.3618 14.79589489186222"
      },
      "geometry": {
        "type": "Point",
        "coordinates": [
          -108.62162047021371,
          -69.59334390794317
        ]
      }
    },
    {
      "type": "Feature",
      "properties": {
        "norad_id": 54754,
        "name": "SWOT",
        "group": "resource",
        "lat": 48.0394789873488,
        "lon": 99.0223948955915,
        "alt_km": 888.452223189167,
        "timestamp": "2025-12-08T03:50:06.662763+00:00",
        "meta_object_name": "SWOT",
        "meta_object_id": "2022-173A",
        "meta_epoch": "2025-12-07T06:38:09.784896",
        "meta_mean_motion": 14.00173483,
        "meta_eccentricity": 3.508e-05,
        "meta_inclination": 77.6101,
        "meta_ra_of_asc_node": 294.3649,
        "meta_arg_of_pericenter": 127.8236,
        "meta_mean_anomaly": 232.2947,
        "meta_ephemeris_type": 0,
        "meta_classification_type": "U",
        "meta_norad_cat_id": 54754,
        "meta_element_set_no": 999,
        "meta_rev_at_epoch": 15229,
        "meta_bstar": 0.00011614086,
        "meta_mean_motion_dot": 1.69e-06,
        "meta_mean_motion_ddot": 0,
        "tle_line1": "1 54754U 22173A   25341.27650214  .00000169  00000+0  11614-3 0  9993",
        "tle_line2": "2 54754  77.6101 294.3649 0000350 127.8236 232.2947 14.00173483152292"
      },
      "geometry": {
        "type": "Point",
        "coordinates": [
          99.0223948955915,
          48.0394789873488
        ]
      }
    },
    {
      "type": "Feature",
      "properties": {
        "norad_id": 57654,
        "name": "GAOFEN-12 04",
        "group": "resource",
        "lat": 79.3946885706372,
        "lon": 125.9511802501083,
        "alt_km": 622.0922943622145,
        "timestamp": "2025-12-08T03:50:06.662773+00:00",
        "meta_object_name": "GAOFEN-12 04",
        "meta_object_id": "2023-123A",
        "meta_epoch": "2025-12-07T06:17:59.045280",
        "meta_mean_motion": 14.79675777,
        "meta_eccentricity": 0.00014041,
        "meta_inclination": 97.9121,
        "meta_ra_of_asc_node": 257.1028,
        "meta_arg_of_pericenter": 72.7871,
        "meta_mean_anomaly": 287.3494,
        "meta_ephemeris_type": 0,
        "meta_classification_type": "U",
        "meta_norad_cat_id": 57654,
        "meta_element_set_no": 999,
        "meta_rev_at_epoch": 12424,
        "meta_bstar": 0.00036908693,
        "meta_mean_motion_dot": 2.719e-05,
        "meta_mean_motion_ddot": 0,
        "tle_line1": "1 57654U 23123A   25341.26248895  .00002719  00000+0  36909-3 0  9995",
        "tle_line2": "2 57654  97.9121 257.1028 0001404  72.7871 287.3494 14.79675777124244"
      },
      "geometry": {
        "type": "Point",
        "coordinates": [
          125.9511802501083,
          79.3946885706372
        ]
      }
    },
    {
      "type": "Feature",
      "properties": {
        "norad_id": 59065,
        "name": "PARS 1",
        "group": "resource",
        "lat": -26.20936572607965,
        "lon": 129.2960116360536,
        "alt_km": 453.941635682374,
        "timestamp": "2025-12-08T03:50:06.662783+00:00",
        "meta_object_name": "PARS 1",
        "meta_object_id": "2024-039Q",
        "meta_epoch": "2025-12-07T06:40:52.740480",
        "meta_mean_motion": 15.40795313,
        "meta_eccentricity": 0.00126906,
        "meta_inclination": 97.4633,
        "meta_ra_of_asc_node": 312.0961,
        "meta_arg_of_pericenter": 88.2971,
        "meta_mean_anomaly": 271.9729,
        "meta_ephemeris_type": 0,
        "meta_classification_type": "U",
        "meta_norad_cat_id": 59065,
        "meta_element_set_no": 999,
        "meta_rev_at_epoch": 9904,
        "meta_bstar": 0.00042733494,
        "meta_mean_motion_dot": 0.00017481,
        "meta_mean_motion_ddot": 0,
        "tle_line1": "1 59065U 24039Q   25341.27838820  .00017481  00000+0  42733-3 0  9998",
        "tle_line2": "2 59065  97.4633 312.0961 0012690  88.2971 271.9729 15.40795313 99041"
      },
      "geometry": {
        "type": "Point",
        "coordinates": [
          129.2960116360536,
          -26.20936572607965
        ]
      }
    },
    {
      "type": "Feature",
      "properties": {
        "norad_id": 59371,
        "name": "RESURS-P 4",
        "group": "resource",
        "lat": 45.56774824999167,
        "lon": 116.0491417866697,
        "alt_km": 465.7356498114632,
        "timestamp": "2025-12-08T03:50:06.662793+00:00",
        "meta_object_name": "RESURS-P 4",
        "meta_object_id": "2024-061A",
        "meta_epoch": "2025-12-07T06:52:28.416000",
        "meta_mean_motion": 15.32021326,
        "meta_eccentricity": 0.00019139,
        "meta_inclination": 97.2542,
        "meta_ra_of_asc_node": 287.7282,
        "meta_arg_of_pericenter": 53.3697,
        "meta_mean_anomaly": 306.7721,
        "meta_ephemeris_type": 0,
        "meta_classification_type": "U",
        "meta_norad_cat_id": 59371,
        "meta_element_set_no": 999,
        "meta_rev_at_epoch": 9437,
        "meta_bstar": 0.00020886358,
        "meta_mean_motion_dot": 6.381e-05,
        "meta_mean_motion_ddot": 0,
        "tle_line1": "1 59371U 24061A   25341.28644000  .00006381  00000+0  20886-3 0  9991",
        "tle_line2": "2 59371  97.2542 287.7282 0001913  53.3697 306.7721 15.32021326 94373"
      },
      "geometry": {
        "type": "Point",
        "coordinates": [
          116.0491417866697,
          45.56774824999167
        ]
      }
    },
    {
      "type": "Feature",
      "properties": {
        "norad_id": 59625,
        "name": "LEGION 1",
        "group": "resource",
        "lat": -73.96385056926462,
        "lon": -150.5296886553311,
        "alt_km": 523.5838588893666,
        "timestamp": "2025-12-08T03:50:06.662803+00:00",
        "meta_object_name": "LEGION 1",
        "meta_object_id": "2024-081A",
        "meta_epoch": "2025-12-07T06:07:20.060256",
        "meta_mean_motion": 15.16398789,
        "meta_eccentricity": 0.00043686,
        "meta_inclination": 97.5217,
        "meta_ra_of_asc_node": 55.9409,
        "meta_arg_of_pericenter": 340.5658,
        "meta_mean_anomaly": 19.5407,
        "meta_ephemeris_type": 0,
        "meta_classification_type": "U",
        "meta_norad_cat_id": 59625,
        "meta_element_set_no": 999,
        "meta_rev_at_epoch": 8844,
        "meta_bstar": 0.00039567456,
        "meta_mean_motion_dot": 7.623e-05,
        "meta_mean_motion_ddot": 0,
        "tle_line1": "1 59625U 24081A   25341.25509329  .00007623  00000+0  39567-3 0  9992",
        "tle_line2": "2 59625  97.5217  55.9409 0004368 340.5658  19.5407 15.16398789 88441"
      },
      "geometry": {
        "type": "Point",
        "coordinates": [
          -150.5296886553311,
          -73.96385056926462
        ]
      }
    }
  ]
}